NORAD_CAT_ID,OBJECT_NAME,OBJECT_TYPE,EPOCH,MEAN_MOTION,ECCENTRICITY,INCLINATION,RA_OF_ASC_NODE,ARG_OF_PERICENTER,MEAN_ANOMALY,BSTAR,MEAN_MOTION_DOT,MEAN_MOTION_DDOT,TLE_LINE0,TLE_LINE1,TLE_LINE2,SEMIMAJOR_AXIS,PERIOD,APOGEE,PERIGEE,DECAYED
56775.0,STARLINK-6292,PAYLOAD,2023-12-04 04:26:55,15.69915137,0.0002582,69.9995,247.7901,251.3603,108.7313,2.8273e-05,3.187e-05,0.0,0 STARLINK-6292,1 56775U 23078J   23338.18536169  .00003187  00000-0  28273-4 0  9993,2 56775  69.9995 247.7901 0002582 251.3603 108.7313 15.69915137 29647,6737.277,91.725,360.881,357.402,0.0
56775.0,STARLINK-6292,PAYLOAD,2023-12-04 18:12:41,15.69913783,0.0002639,69.9992,246.1784,249.0288,111.0625,3.3507e-05,3.816e-05,0.0,0 STARLINK-6292,1 56775U 23078J   23338.75881496  .00003816  00000-0  33507-4 0  9997,2 56775  69.9992 246.1784 0002639 249.0288 111.0625 15.69913783 29471,6737.281,91.725,360.924,357.368,0.0
56775.0,STARLINK-6292,PAYLOAD,2023-12-05 03:23:12,15.69905788,0.0003145,69.9992,245.1036,247.8036,112.2827,2.9699e-05,3.357e-05,0.0,0 STARLINK-6292,1 56775U 23078J   23339.14112191  .00003357  00000-0  29699-4 0  9997,2 56775  69.9992 245.1036 0003145 247.8036 112.2827 15.69905788 29798,6737.304,91.725,361.287,357.05,0.0
56775.0,STARLINK-6292,PAYLOAD,2023-12-06 03:51:14,15.69916524,0.0003389,69.9984,242.237,259.1374,100.9441,1.5361e-05,1.634e-05,0.0,0 STARLINK-6292,1 56775U 23078J   23340.16058505  .00001634  00000-0  15361-4 0  9996,2 56775  69.9984 242.2370 0003389 259.1374 100.9441 15.69916524 29953,6737.273,91.725,361.421,356.855,0.0
56775.0,STARLINK-6292,PAYLOAD,2023-12-07 02:47:33,15.69885541,0.0003372,69.9972,239.5545,327.9105,32.1885,7.4896e-05,8.788e-05,0.0,0 STARLINK-6292,1 56775U 23078J   23341.11635443  .00008788  00000-0  74896-4 0  9999,2 56775  69.9972 239.5545 0003372 327.9105  32.1885 15.69885541 30102,6737.361,91.726,361.498,356.955,0.0
56775.0,STARLINK-6292,PAYLOAD,2023-12-07 16:33:18,15.69953662,0.0003272,69.9975,237.9377,276.0356,84.0467,-6.4686e-05,-7.993e-05,0.0,0 STARLINK-6292,1 56775U 23078J   23341.68979762 -.00007993  00000-0 -64686-4 0  9991,2 56775  69.9975 237.9377 0003272 276.0356  84.0467 15.69953662 30192,6737.167,91.722,361.236,356.827,0.0
56775.0,STARLINK-6292,PAYLOAD,2023-12-08 03:15:33,15.69924183,0.0002875,69.9955,236.6864,286.6698,73.4182,-4.5553e-06,-7.6e-06,0.0,0 STARLINK-6292,1 56775U 23078J   23342.13580777 -.00000760  00000-0 -45553-5 0  9994,2 56775  69.9955 236.6864 0002875 286.6698  73.4182 15.69924183 30003,6737.251,91.724,361.053,357.179,0.0
56775.0,STARLINK-6292,PAYLOAD,2023-12-09 02:11:50,15.69910952,0.0003298,69.995,233.9987,281.731,78.3515,2.8183e-05,3.175e-05,0.0,0 STARLINK-6292,1 56775U 23078J   23343.09155442  .00003175  00000-0  28183-4 0  9997,2 56775  69.9950 233.9987 0003298 281.7310  78.3515 15.69910952 30150,6737.289,91.725,361.376,356.932,0.0
56775.0,STARLINK-6292,PAYLOAD,2023-12-09 15:57:36,15.69924686,0.0003153,69.9942,232.3859,273.2496,86.8339,3.5377e-06,2.13e-06,0.0,0 STARLINK-6292,1 56775U 23078J   23343.66500398  .00000213  00000-0  35377-5 0  9998,2 56775  69.9942 232.3859 0003153 273.2496  86.8339 15.69924686 30509,6737.249,91.724,361.239,356.99,0.0
56775.0,STARLINK-6292,PAYLOAD,2023-12-10 19:29:08,15.69921852,0.0003329,69.9978,229.1601,277.1392,82.9425,1.135e-06,-7.6e-07,0.0,0 STARLINK-6292,1 56775U 23078J   23344.81190825 -.00000076  00000-0  11350-5 0  9999,2 56775  69.9978 229.1601 0003329 277.1392  82.9425 15.69921852 30684,6737.258,91.724,361.365,356.88,0.0
56775.0,STARLINK-6292,PAYLOAD,2023-12-11 01:36:08,15.69926316,0.0002881,69.9991,228.4447,253.6617,106.4262,5.7065e-06,4.74e-06,0.0,0 STARLINK-6292,1 56775U 23078J   23345.06677031  .00000474  00000-0  57065-5 0  9990,2 56775  69.9991 228.4447 0002881 253.6617 106.4262 15.69926316 30726,6737.245,91.724,361.051,357.169,0.0
56775.0,STARLINK-6292,PAYLOAD,2023-12-11 19:57:10,15.69905952,0.0003081,69.9979,226.2973,256.5889,103.4963,2.9411e-05,3.322e-05,0.0,0 STARLINK-6292,1 56775U 23078J   23345.83137678  .00003322  00000-0  29411-4 0  9991,2 56775  69.9979 226.2973 0003081 256.5889 103.4963 15.69905952 30849,6737.303,91.725,361.244,357.092,0.0
56775.0,STARLINK-6292,PAYLOAD,2023-12-12 02:04:11,15.69914447,0.0003283,69.9981,225.58,257.1049,102.978,2.283e-06,6.2e-07,0.0,0 STARLINK-6292,1 56775U 23078J   23346.08624590  .00000062  00000-0  22830-5 0  9990,2 56775  69.9981 225.5800 0003283 257.1049 102.9780 15.69914447 30628,6737.279,91.725,361.356,356.932,0.0
56775.0,STARLINK-6292,PAYLOAD,2023-12-12 18:53:27,15.69929904,0.000375,69.9972,223.6091,264.5291,95.5477,1.357e-07,-1.97e-06,0.0,0 STARLINK-6292,1 56775U 23078J   23346.78712146 -.00000197  00000-0  13570-6 0  9994,2 56775  69.9972 223.6091 0003750 264.5291  95.5477 15.69929904 30993,6737.235,91.724,361.626,356.573,0.0
56775.0,STARLINK-6292,PAYLOAD,2023-12-13 01:00:27,15.69935917,0.0003354,69.9981,222.8931,257.8977,102.1843,1.0245e-05,1.02e-05,0.0,0 STARLINK-6292,1 56775U 23078J   23347.04198090  .00001020  00000-0  10245-4 0  9999,2 56775  69.9981 222.8931 0003354 257.8977 102.1843 15.69935917 31032,6737.217,91.723,361.342,356.823,0.0
56775.0,STARLINK-6292,PAYLOAD,2023-12-13 19:21:29,15.6991664,0.0003021,69.9998,220.7429,233.416,126.6758,1.5221e-05,1.617e-05,0.0,0 STARLINK-6292,1 56775U 23078J   23347.80659105  .00001617  00000-0  15221-4 0  9993,2 56775  69.9998 220.7429 0003021 233.4160 126.6758 15.69916640 31155,6737.272,91.725,361.173,357.102,0.0
56775.0,STARLINK-6292,PAYLOAD,2023-12-14 01:28:31,15.6990279,0.0002942,69.9987,220.0281,263.1291,96.957,-9.5026e-06,-1.354e-05,0.0,0 STARLINK-6292,1 56775U 23078J   23348.06147378 -.00001354  00000-0 -95026-5 0  9998,2 56775  69.9987 220.0281 0002942 263.1291  96.9570 15.69902790 31194,6737.312,91.725,361.159,357.195,0.0
56775.0,STARLINK-6292,PAYLOAD,2023-12-14 18:17:45,15.69931488,0.0002729,70.0012,218.0588,230.4168,129.6787,1.0573e-05,1.059e-05,0.0,0 STARLINK-6292,1 56775U 23078J   23348.76233582  .00001059  00000-0  10573-4 0  9991,2 56775  70.0012 218.0588 0002729 230.4168 129.6787 15.69931488 31309,6737.23,91.724,360.934,357.256,0.0
56775.0,STARLINK-6292,PAYLOAD,2023-12-15 00:24:46,15.6992268,0.0003028,69.9999,217.3385,263.5949,96.4902,1.2781e-05,1.324e-05,0.0,0 STARLINK-6292,1 56775U 23078J   23349.01720746  .00001324  00000-0  12781-4 0  9991,2 56775  69.9999 217.3385 0003028 263.5949  96.4902 15.69922680 31342,6737.255,91.724,361.16,357.08,0.0
56775.0,STARLINK-6292,PAYLOAD,2023-12-15 18:45:48,15.69918725,0.0002746,70.0006,215.1907,233.3855,126.7089,-1.125e-06,-3.48e-06,0.0,0 STARLINK-6292,1 56775U 23078J   23349.78181328 -.00000348  00000-0 -11250-5 0  9990,2 56775  70.0006 215.1907 0002746 233.3855 126.7089 15.69918725 31200,6737.267,91.724,360.982,357.281,0.0
56775.0,STARLINK-6292,PAYLOAD,2023-12-16 00:52:49,15.69917246,0.0002732,70.0001,214.4736,243.6428,116.4487,-2.9605e-06,-5.68e-06,0.0,0 STARLINK-6292,1 56775U 23078J   23350.03668277 -.00000568  00000-0 -29605-5 0  9990,2 56775  70.0001 214.4736 0002732 243.6428 116.4487 15.69917246 31500,6737.271,91.725,360.976,357.295,0.0
56775.0,STARLINK-6292,PAYLOAD,2023-12-16 17:42:05,15.69928468,0.0003339,69.9993,212.5017,262.9476,97.134,3.4486e-06,2.02e-06,0.0,0 STARLINK-6292,1 56775U 23078J   23350.73755805  .00000202  00000-0  34486-5 0  9997,2 56775  69.9993 212.5017 0003339 262.9476  97.1340 15.69928468 31612,6737.239,91.724,361.353,356.854,0.0
56775.0,STARLINK-6292,PAYLOAD,2023-12-16 23:49:05,15.69926724,0.0003492,69.9989,211.7849,265.9059,94.1738,-5.8413e-08,-2.2e-06,0.0,0 STARLINK-6292,1 56775U 23078J   23350.99242697 -.00000220  00000-0 -58413-7 0  9995,2 56775  69.9989 211.7849 0003492 265.9059  94.1738 15.69926724 31397,6737.244,91.724,361.461,356.756,0.0
56775.0,STARLINK-6292,PAYLOAD,2023-12-17 18:10:06,15.6992277,0.0003567,69.9982,209.6369,258.6168,101.4627,1.5275e-05,1.624e-05,0.0,0 STARLINK-6292,1 56775U 23078J   23351.75702492  .00001624  00000-0  15275-4 0  9997,2 56775  69.9982 209.6369 0003567 258.6168 101.4627 15.69922770 31774,6737.255,91.724,361.523,356.717,0.0
56775.0,STARLINK-6292,PAYLOAD,2023-12-18 00:17:07,15.69923128,0.000361,69.9974,208.918,261.8282,98.2505,1.1665e-05,1.19e-05,0.0,0 STARLINK-6292,1 56775U 23078J   23352.01189250  .00001190  00000-0  11665-4 0  9995,2 56775  69.9974 208.9180 0003610 261.8282  98.2505 15.69923128 31552,6737.254,91.724,361.551,356.687,0.0
56775.0,STARLINK-6292,PAYLOAD,2023-12-18 15:34:38,15.69929612,0.0003614,69.9974,207.1242,266.7663,93.3119,1.0976e-05,1.107e-05,0.0,0 STARLINK-6292,1 56775U 23078J   23352.64905402  .00001107  00000-0  10976-4 0  9991,2 56775  69.9974 207.1242 0003614 266.7663  93.3119 15.69929612 31655,6737.235,91.724,361.535,356.666,0.0
56775.0,STARLINK-6292,PAYLOAD,2023-12-18 23:13:25,15.69909328,0.0003266,69.9987,206.2329,258.155,101.928,-1.5002e-05,-2.015e-05,0.0,0 STARLINK-6292,1 56775U 23078J   23352.96765601 -.00002015  00000-0 -15002-4 0  9997,2 56775  69.9987 206.2329 0003266 258.1550 101.9280 15.69909328 31969,6737.293,91.725,361.359,356.958,0.0
56775.0,STARLINK-6292,PAYLOAD,2023-12-19 17:34:26,15.69910687,0.0003394,69.9995,204.0836,265.4478,94.633,8.4312e-06,8.01e-06,0.0,0 STARLINK-6292,1 56775U 23078J   23353.73225248  .00000801  00000-0  84312-5 0  9991,2 56775  69.9995 204.0836 0003394 265.4478  94.6330 15.69910687 32087,6737.29,91.725,361.441,356.868,0.0
56775.0,STARLINK-6292,PAYLOAD,2023-12-19 23:41:26,15.69920298,0.0003442,69.9977,203.3656,264.3311,95.7492,9.533e-06,9.33e-06,0.0,0 STARLINK-6292,1 56775U 23078J   23353.98711403  .00000933  00000-0  95330-5 0  9999,2 56775  69.9977 203.3656 0003442 264.3311  95.7492 15.69920298 32122,6737.262,91.724,361.446,356.808,0.0
56775.0,STARLINK-6292,PAYLOAD,2023-12-20 16:30:42,15.69915924,0.0003548,69.9972,201.3956,264.2356,95.8435,2.5548e-05,2.859e-05,0.0,0 STARLINK-6292,1 56775U 23078J   23354.68799590  .00002859  00000-0  25548-4 0  9992,2 56775  69.9972 201.3956 0003548 264.2356  95.8435 15.69915924 31973,6737.275,91.725,361.53,356.749,0.0
